NORAD_CAT_ID,OBJECT_NAME,OBJECT_TYPE,EPOCH,MEAN_MOTION,ECCENTRICITY,INCLINATION,RA_OF_ASC_NODE,ARG_OF_PERICENTER,MEAN_ANOMALY,BSTAR,MEAN_MOTION_DOT,MEAN_MOTION_DDOT,TLE_LINE0,TLE_LINE1,TLE_LINE2,SEMIMAJOR_AXIS,PERIOD,APOGEE,PERIGEE,DECAYED
53613.0,STARLINK-4655,PAYLOAD,2024-06-02 12:23:57,15.08839278,0.0001354,53.2184,250.5699,90.7497,269.365,8.9857e-05,1.142e-05,0.0,0 STARLINK-4655,1 53613U 22104AB  24154.51663301  .00001142  00000-0  89857-4 0  9997,2 53613  53.2184 250.5699 0001354  90.7497 269.3650 15.08839278 98232,6917.883,95.438,540.684,538.811,0.0
53613.0,STARLINK-4655,PAYLOAD,2024-06-03 05:53:11,15.08836156,0.0001447,53.2147,247.2981,88.999,271.1168,0.00023438,3.444e-05,0.0,0 STARLINK-4655,1 53613U 22104AB  24155.24527113  .00003444  00000-0  23438-3 0  9997,2 53613  53.2147 247.2981 0001447  88.9990 271.1168 15.08836156 97773,6917.892,95.438,540.758,538.756,0.0
53613.0,STARLINK-4655,PAYLOAD,2024-06-03 12:14:44,15.08838153,0.0001383,53.2177,246.1078,101.308,258.8068,0.00014849,2.076e-05,0.0,0 STARLINK-4655,1 53613U 22104AB  24155.51023330  .00002076  00000-0  14849-3 0  9995,2 53613  53.2177 246.1078 0001383 101.3080 258.8068 15.08838153 98388,6917.886,95.438,540.708,538.794,0.0
53613.0,STARLINK-4655,PAYLOAD,2024-06-03 23:22:25,15.08851308,0.0001127,53.216,244.0252,91.6725,268.4397,0.00014011,1.943e-05,0.0,0 STARLINK-4655,1 53613U 22104AB  24155.97390369  .00001943  00000-0  14011-3 0  9997,2 53613  53.2160 244.0252 0001127  91.6725 268.4397 15.08851308 97887,6917.846,95.437,540.49,538.931,0.0
53613.0,STARLINK-4655,PAYLOAD,2024-06-04 12:05:31,15.08840139,0.000133,53.2159,241.648,88.1945,271.9199,4.3093e-05,3.98e-06,0.0,0 STARLINK-4655,1 53613U 22104AB  24156.50383398  .00000398  00000-0  43093-4 0  9997,2 53613  53.2159 241.6480 0001330  88.1945 271.9199 15.08840139 97960,6917.88,95.438,540.665,538.825,0.0
53613.0,STARLINK-4655,PAYLOAD,2024-06-04 15:16:16,15.08848633,0.0001519,53.217,241.049,101.5029,258.6134,4.0669e-05,3.59e-06,0.0,0 STARLINK-4655,1 53613U 22104AB  24156.63630764  .00000359  00000-0  40669-4 0  9996,2 53613  53.2170 241.0490 0001519 101.5029 258.6134 15.08848633 97980,6917.854,95.437,540.77,538.668,0.0
53613.0,STARLINK-4655,PAYLOAD,2024-06-04 23:13:12,15.08855048,0.0001482,53.2176,239.5637,99.51,260.6059,8.9709e-05,1.141e-05,0.0,0 STARLINK-4655,1 53613U 22104AB  24156.96750031  .00001141  00000-0  89709-4 0  9990,2 53613  53.2176 239.5637 0001482  99.5100 260.6059 15.08855048 98030,6917.834,95.437,540.725,538.674,0.0
53613.0,STARLINK-4655,PAYLOAD,2024-06-05 11:56:18,15.08833232,0.0001307,53.2174,237.1857,102.997,257.1168,-6.5871e-05,-1.336e-05,0.0,0 STARLINK-4655,1 53613U 22104AB  24157.49743981 -.00001336  00000-0 -65871-4 0  9997,2 53613  53.2174 237.1857 0001307 102.9970 257.1168 15.08833232 98118,6917.901,95.438,540.67,538.862,0.0
53613.0,STARLINK-4655,PAYLOAD,2024-06-05 15:07:04,15.08831577,0.000142,53.2169,236.5904,103.7147,256.4003,-0.00011187,-2.067e-05,0.0,0 STARLINK-4655,1 53613U 22104AB  24157.62991654 -.00002067  00000-0 -11187-3 0  9996,2 53613  53.2169 236.5904 0001420 103.7147 256.4003 15.08831577 98704,6917.906,95.438,540.753,538.789,0.0
53613.0,STARLINK-4655,PAYLOAD,2024-06-06 11:47:05,15.08838545,0.0001095,53.2149,232.7272,86.3871,273.7247,0.00016431,2.328e-05,0.0,0 STARLINK-4655,1 53613U 22104AB  24158.49103712  .00002328  00000-0  16431-3 0  9997,2 53613  53.2149 232.7272 0001095  86.3871 273.7247 15.08838545 98261,6917.885,95.438,540.507,538.992,0.0
53613.0,STARLINK-4655,PAYLOAD,2024-06-07 13:13:16,15.08835588,0.0001264,53.2157,227.9692,90.6098,269.5039,0.00015667,2.206e-05,0.0,0 STARLINK-4655,1 53613U 22104AB  24159.55088148  .00002206  00000-0  15667-3 0  9995,2 53613  53.2157 227.9692 0001264  90.6098 269.5039 15.08835588 98423,6917.894,95.438,540.633,538.884,0.0
53613.0,STARLINK-4655,PAYLOAD,2024-06-07 14:48:39,15.08836116,0.0001266,53.2156,227.6717,90.4681,269.6457,0.00017367,2.477e-05,0.0,0 STARLINK-4655,1 53613U 22104AB  24159.61712146  .00002477  00000-0  17367-3 0  9993,2 53613  53.2156 227.6717 0001266  90.4681 269.6457 15.08836116 99003,6917.892,95.438,540.633,538.881,0.0
53613.0,STARLINK-4655,PAYLOAD,2024-06-07 21:10:11,15.08847336,0.0001381,53.2164,226.483,95.4632,264.6518,0.00024883,3.675e-05,0.0,0 STARLINK-4655,1 53613U 22104AB  24159.88207530  .00003675  00000-0  24883-3 0  9990,2 53613  53.2164 226.4830 0001381  95.4632 264.6518 15.08847336 99047,6917.858,95.437,540.678,538.768,0.0
53613.0,STARLINK-4655,PAYLOAD,2024-06-08 11:28:39,15.08838039,0.0001512,53.2166,223.8103,97.2968,262.8196,1.1563e-05,-1.04e-06,0.0,0 STARLINK-4655,1 53613U 22104AB  24160.47824067 -.00000104  00000-0  11563-4 0  9994,2 53613  53.2166 223.8103 0001512  97.2968 262.8196 15.08838039 99133,6917.886,95.438,540.797,538.705,0.0
53613.0,STARLINK-4655,PAYLOAD,2024-06-08 21:00:58,15.08844474,0.0001537,53.217,222.0247,90.2118,269.905,0.00011353,1.52e-05,0.0,0 STARLINK-4655,1 53613U 22104AB  24160.87567719  .00001520  00000-0  11353-3 0  9994,2 53613  53.2170 222.0247 0001537  90.2118 269.9050 15.08844474 98625,6917.867,95.437,540.795,538.668,0.0
53613.0,STARLINK-4655,PAYLOAD,2024-06-09 12:54:50,15.08833954,0.0001531,53.2174,219.0489,91.3319,268.7848,8.4012e-05,1.049e-05,0.0,0 STARLINK-4655,1 53613U 22104AB  24161.53808941  .00001049  00000-0  84012-4 0  9992,2 53613  53.2174 219.0489 0001531  91.3319 268.7848 15.08833954 98726,6917.899,95.438,540.823,538.705,0.0
53613.0,STARLINK-4655,PAYLOAD,2024-06-09 20:51:45,15.08844358,0.0001508,53.2159,217.5622,88.0764,272.0401,0.0001259,1.717e-05,0.0,0 STARLINK-4655,1 53613U 22104AB  24161.86928086  .00001717  00000-0  12590-3 0  9994,2 53613  53.2159 217.5622 0001508  88.0764 272.0401 15.08844358 98770,6917.867,95.437,540.775,538.689,0.0
53613.0,STARLINK-4655,PAYLOAD,2024-06-10 11:10:14,15.08842172,0.0001517,53.2158,214.8858,84.5566,275.5599,8.32e-05,1.036e-05,0.0,0 STARLINK-4655,1 53613U 22104AB  24162.46544218  .00001036  00000-0  83200-4 0  9993,2 53613  53.2158 214.8858 0001517  84.5566 275.5599 15.08842172 99433,6917.874,95.437,540.788,538.689,0.0
53613.0,STARLINK-4655,PAYLOAD,2024-06-11 03:04:05,15.08841987,0.0001551,53.2155,211.9122,84.2887,275.8282,0.00022969,3.37e-05,0.0,0 STARLINK-4655,1 53613U 22104AB  24163.12784313  .00003370  00000-0  22969-3 0  9996,2 53613  53.2155 211.9122 0001551  84.2887 275.8282 15.08841987 98965,6917.874,95.437,540.812,538.666,0.0
53613.0,STARLINK-4655,PAYLOAD,2024-06-11 11:01:01,15.08844385,0.0001358,53.2152,210.4255,87.7068,272.4079,0.0001589,2.242e-05,0.0,0 STARLINK-4655,1 53613U 22104AB  24163.45904152  .00002242  00000-0  15890-3 0  9999,2 53613  53.2152 210.4255 0001358  87.7068 272.4079 15.08844385 99588,6917.867,95.437,540.671,538.793,0.0
53613.0,STARLINK-4655,PAYLOAD,2024-06-11 20:33:19,15.08848596,0.000132,53.2148,208.6405,87.3914,272.7229,0.00018329,2.631e-05,0.0,0 STARLINK-4655,1 53613U 22104AB  24163.85647804  .00002631  00000-0  18329-3 0  9993,2 53613  53.2148 208.6405 0001320  87.3914 272.7229 15.08848596 99649,6917.854,95.437,540.632,538.806,0.0
53613.0,STARLINK-4655,PAYLOAD,2024-06-12 09:16:25,15.08836037,0.0001364,53.2162,206.2613,91.3104,268.8044,3.0335e-05,1.95e-06,0.0,0 STARLINK-4655,1 53613U 22104AB  24164.38640453  .00000195  00000-0  30335-4 0  9990,2 53613  53.2162 206.2613 0001364  91.3104 268.8044 15.08836037 99158,6917.893,95.438,540.701,538.814,0.0
53613.0,STARLINK-4655,PAYLOAD,2024-06-13 09:07:12,15.08836788,0.0001451,53.2169,201.8013,92.701,267.4149,0.00012977,1.778e-05,0.0,0 STARLINK-4655,1 53613U 22104AB  24165.38000211  .00001778  00000-0  12977-3 0  9992,2 53613  53.2169 201.8013 0001451  92.7010 267.4149 15.08836788 99871,6917.89,95.438,540.759,538.751,0.0
53613.0,STARLINK-4655,PAYLOAD,2024-06-14 12:08:45,15.08835404,0.0001324,53.2164,196.7446,90.5639,269.5505,4.6994e-05,4.6e-06,0.0,0 STARLINK-4655,1 53613U 22104AB  24166.50608515  .00000460  00000-0  46994-4 0  9992,2 53613  53.2164 196.7446 0001324  90.5639 269.5505 15.08835404100045,6917.894,95.438,540.675,538.844,0.0
53613.0,STARLINK-4655,PAYLOAD,2024-06-14 18:30:18,15.08837964,0.0001346,53.2167,195.5556,91.0183,269.0963,6.1079e-05,6.84e-06,0.0,0 STARLINK-4655,1 53613U 22104AB  24166.77104354  .00000684  00000-0  61079-4 0  9992,2 53613  53.2167 195.5556 0001346  91.0183 269.0963 15.08837964100081,6917.887,95.438,540.683,538.82,0.0
53613.0,STARLINK-4655,PAYLOAD,2024-06-15 11:59:32,15.08837274,0.0001331,53.2164,192.2859,92.8383,267.2761,3.9854e-05,3.46e-06,0.0,0 STARLINK-4655,1 53613U 22104AB  24167.49968619  .00000346  00000-0  39854-4 0  9995,2 53613  53.2164 192.2859 0001331  92.8383 267.2761 15.08837274100195,6917.889,95.438,540.674,538.833,0.0
53613.0,STARLINK-4655,PAYLOAD,2024-06-15 18:21:05,15.08838355,0.0001335,53.2165,191.0965,92.8181,267.2964,4.6027e-05,4.45e-06,0.0,0 STARLINK-4655,1 53613U 22104AB  24167.76464570  .00000445  00000-0  46027-4 0  9992,2 53613  53.2165 191.0965 0001335  92.8181 267.2964 15.08838355100232,6917.885,95.438,540.674,538.827,0.0
53613.0,STARLINK-4655,PAYLOAD,2024-06-16 11:50:19,15.08839168,0.0001333,53.2163,187.8256,93.9143,266.2001,7.3449e-05,8.81e-06,0.0,0 STARLINK-4655,1 53613U 22104AB  24168.49328570  .00000881  00000-0  73449-4 0  9994,2 53613  53.2163 187.8256 0001333  93.9143 266.2001 15.08839168100340,6917.883,95.438,540.67,538.826,0.0
53613.0,STARLINK-4655,PAYLOAD,2024-06-17 18:02:39,15.08840382,0.0001303,53.2162,182.1751,87.6854,272.4287,5.5325e-05,5.93e-06,0.0,0 STARLINK-4655,1 53613U 22104AB  24169.75184708  .00000593  00000-0  55325-4 0  9990,2 53613  53.2162 182.1751 0001303  87.6854 272.4287 15.08840382100539,6917.879,95.438,540.646,538.843,0.0
53613.0,STARLINK-4655,PAYLOAD,2024-06-18 09:56:30,15.08841352,0.0001266,53.2154,179.2009,88.6383,271.4754,5.275e-05,5.52e-06,0.0,0 STARLINK-4655,1 53613U 22104AB  24170.41424640  .00000552  00000-0  52750-4 0  9991,2 53613  53.2154 179.2009 0001266  88.6383 271.4754 15.08841352100063,6917.876,95.437,540.617,538.865,0.0
